SPACEBEENZ-17           
1 52397U 22047D   23026.18813492  .00030592  00000+0  13936-2 0  9992
2 52397  97.4335 111.9119 0007831 115.3701 244.8346 15.20590400 42103
SPACEBEENZ-18           
1 52398U 22047E   23026.45313525  .00031699  00000+0  14440-2 0  9995
2 52398  97.4339 112.1694 0007775 114.2138 245.9910 15.20583876 42140
SPACEBEE-140            
1 52399U 22047F   23026.45869154  .00026227  00000+0  12334-2 0  9991
2 52399  97.4340 112.0173 0008111 115.2258 244.9818 15.19522731 42151
SPACEBEE-141            
1 52400U 22047G   23026.44925759  .00022892  00000+0  11025-2 0  9997
2 52400  97.4344 111.8799 0008305 115.1040 245.1057 15.18723172 42128
SPACEBEE-142            
1 52401U 22047H   23026.47235112  .00021600  00000+0  10473-2 0  9990
2 52401  97.4338 111.8407 0008404 115.4407 244.7698 15.18501408 42120
SPACEBEENZ-20           
1 52402U 22047J   23026.33367310  .00030122  00000+0  13756-2 0  9998
2 52402  97.4328 111.9997 0008554 118.3788 241.8311 15.20503234 42127
SPACEBEENZ-22           
1 52403U 22047K   23026.22238129  .00027710  00000+0  12780-2 0  9997
2 52403  97.4332 111.8446 0008799 118.2667 241.9457 15.20179457 42103
SPACEBEENZ-19           
1 52404U 22047L   23026.19656246  .00030436  00000+0  13871-2 0  9999
2 52404  97.4331 111.8802 0008523 118.7630 241.4463 15.20570922 42103
SPACEBEENZ-21           
1 52405U 22047M   23026.47032505  .00028986  00000+0  13269-2 0  9995
2 52405  97.4338 112.1260 0008645 117.9598 242.2513 15.20428571 42143
SPACEBEE-148            
1 52406U 22047N   23026.21054098  .00024993  00000+0  11796-2 0  9996
2 52406  97.4334 111.7146 0008874 118.8524 241.3602 15.19402596 42091
SPACEBEE-149            
1 52407U 22047P   23026.47243572  .00023481  00000+0  11298-2 0  9990
2 52407  97.4331 111.8170 0008947 118.2633 241.9506 15.18745553 42128
SPACEBEE-153            
1 52408U 22047Q   23026.23238044  .00023728  00000+0  11333-2 0  9997
2 52408  97.4368 111.7883 0008767 129.3940 230.8072 15.19000890 42093
SPACEBEE-150            
1 52409U 22047R   23026.20824125  .00021740  00000+0  10521-2 0  9996
2 52409  97.4337 111.5675 0008995 120.3165 239.8960 15.18560973 42086
SPACEBEE-144            
1 52410U 22047S   23026.20698215  .00021330  00000+0  10334-2 0  9994
2 52410  97.4342 111.5923 0008341 119.0587 241.1484 15.18530605 42084
SPACEBEE-145            
1 52411U 22047T   23026.21495205  .00021954  00000+0  10633-2 0  9994
2 52411  97.4341 111.5774 0008430 117.9544 242.2545 15.18535175 42084
SPACEBEE-146            
1 52412U 22047U   23026.17055286  .00026861  00000+0  12999-2 0  9990
2 52412  97.4339 111.4722 0008342 118.4979 241.7096 15.18522129 42073
SPACEBEE-151            
1 52413U 22047V   23026.48281815  .00021754  00000+0  10553-2 0  9994
2 52413  97.4336 111.8087 0008941 120.4282 239.7836 15.18478140 42122
SPACEBEE-152            
1 52414U 22047W   23026.17050137  .00026798  00000+0  13035-2 0  9993
2 52414  97.4334 111.4537 0008970 120.8934 239.3183 15.18339338 42077
SPACEBEE-147            
1 52415U 22047X   23026.22971980  .00021638  00000+0  10533-2 0  9996
2 52415  97.4343 111.5620 0008348 120.7524 239.4533 15.18363743 42083
SPACEBEE-155            
1 52416U 22047Y   23026.22185043  .00021455  00000+0  10619-2 0  9996
2 52416  97.4321 111.3674 0009522 125.3559 234.8566 15.17774434 42077
SPACEBEE-154            
1 52417U 22047Z   23025.98211625  .00024715  00000+0  12053-2 0  9991
2 52417  97.4337 111.2538 0008849 123.3141 236.8941 15.18266546 42046
SPACEBEE-167            
1 55087U 23001CG  23026.60162696  .00016007  00000+0  87801-3 0  9990
2 55087  97.4993  88.3693 0016965 132.4199 227.8471 15.14123007  3638
SPACEBEE-163            
1 55089U 23001CJ  23026.53467711  .00015609  00000+0  85488-3 0  9996
2 55089  97.4990  88.3049 0016806 132.6091 227.6562 15.14186110  3621
SPACEBEE-164            
1 55091U 23001CL  23026.53404052  .00016726  00000+0  91412-3 0  9993
2 55091  97.4990  88.3055 0017341 132.2606 228.0100 15.14237137  3623
SPACEBEE-166            
1 55092U 23001CM  23026.53256397  .00018069  00000+0  98260-3 0  9991
2 55092  97.4994  88.3075 0019134 133.6875 226.5946 15.14369505  3621
SPACEBEE-165            
1 55094U 23001CP  23026.53299803  .00017946  00000+0  97831-3 0  9998
2 55094  97.4989  88.3054 0016345 131.5806 228.6830 15.14326566  3621
SPACEBEE-162            
1 55095U 23001CQ  23026.59912262  .00016921  00000+0  92284-3 0  9995
2 55095  97.4989  88.3717 0017504 131.6065 228.6670 15.14306074  3639
SPACEBEE-161            
1 55096U 23001CR  23026.53284360  .00017001  00000+0  92683-3 0  9994
2 55096  97.4990  88.3067 0017557 131.7020 228.5717 15.14319838  3622
SPACEBEE-160            
1 55097U 23001CS  23026.53253331  .00017422  00000+0  94882-3 0  9999
2 55097  97.4990  88.3071 0017683 131.7030 228.5718 15.14348631  3623
SPACEBEE-156            
1 55099U 23001CU  23026.53243700  .00017172  00000+0  93516-3 0  9995
2 55099  97.4989  88.3072 0017639 131.7267 228.5477 15.14353117  3624
SPACEBEE-158            
1 55100U 23001CV  23026.53242496  .00016020  00000+0  87295-3 0  9997
2 55100  97.4988  88.3065 0018014 132.2559 228.0204 15.14342426  3620
SPACEBEE-159            
1 55101U 23001CW  23026.53118066  .00018527  00000+0  10039-2 0  9998
2 55101  97.4994  88.3087 0018651 131.4442 228.8395 15.14499689  3624
SPACEBEE-157            
1 55102U 23001CX  23026.53159681  .00019002  00000+0  10314-2 0  9992
2 55102  97.4988  88.3080 0016997 134.4127 225.8500 15.14459498  3624
